ORBCOMM FM20            
1 25416U 98046D   24345.76717036  .00002231  00000+0  80197-3 0  9995
2 25416  44.9951 353.0962 0002050 298.5027  61.5614 14.36429949377203
ORBCOMM FM16            
1 25417U 98046E   24345.55186246  .00002755  00000+0  95219-3 0  9998
2 25417  44.9946 347.9642 0003069  32.2210 327.8825 14.37825050377096
ORBCOMM FM15            
1 25418U 98046F   24345.76185864  .00002968  00000+0  10286-2 0  9993
2 25418  44.9979 351.5783 0002548  31.0931 329.0068 14.37507450377294
ORBCOMM FM14            
1 25419U 98046G   24345.40571880  .00003485  00000+0  11927-2 0  9990
2 25419  44.9964 351.9956 0002343   0.0065   0.0783 14.37792885377032
ORBCOMM FM13            
1 25420U 98046H   24345.50799552  .00002729  00000+0  96381-3 0  9999
2 25420  44.9984 357.7970 0004020  19.9275 340.1729 14.36769341376095
ORBCOMM FM21            
1 25475U 98053A   24345.54803738  .00002614  00000+0  92886-3 0  9992
2 25475  45.0082  82.3338 0001652 262.5932  97.4728 14.36565836370110
ORBCOMM FM22            
1 25476U 98053B   24345.56893176  .00003146  00000+0  10903-2 0  9990
2 25476  45.0074  78.4555 0002680 305.9272  54.1327 14.37376146370121
ORBCOMM FM23            
1 25477U 98053C   24345.56775315  .00002753  00000+0  97386-3 0  9999
2 25477  45.0081  84.5738 0002036 290.8924  69.1706 14.36666520370261
