<?xml version="1.0" encoding="UTF-8"?>
<ndm xmlns:xsi="http://www.w3.org/2001/XMLSchema-instance" xsi:noNamespaceSchemaLocation="https://sanaregistry.org/r/ndmxml_unqualified/ndmxml-2.0.0-master-2.0.xsd">
<omm id="CCSDS_OMM_VERS" version="2.0">
<header><CREATION_DATE/><ORIGINATOR/></header><body><segment><metadata><OBJECT_NAME>ORBCOMM FM20</OBJECT_NAME><OBJECT_ID>1998-046D</OBJECT_ID><CENTER_NAME>EARTH</CENTER_NAME><REF_FRAME>TEME</REF_FRAME><TIME_SYSTEM>UTC</TIME_SYSTEM><MEAN_ELEMENT_THEORY>SGP4</MEAN_ELEMENT_THEORY></metadata><data><meanElements><EPOCH>2024-12-10T18:24:43.519104</EPOCH><MEAN_MOTION>14.36429949</MEAN_MOTION><ECCENTRICITY>.000205</ECCENTRICITY><INCLINATION>44.9951</INCLINATION><RA_OF_ASC_NODE>353.0962</RA_OF_ASC_NODE><ARG_OF_PERICENTER>298.5027</ARG_OF_PERICENTER><MEAN_ANOMALY>61.5614</MEAN_ANOMALY></meanElements><tleParameters><EPHEMERIS_TYPE>0</EPHEMERIS_TYPE><CLASSIFICATION_TYPE>U</CLASSIFICATION_TYPE><NORAD_CAT_ID>25416</NORAD_CAT_ID><ELEMENT_SET_NO>999</ELEMENT_SET_NO><REV_AT_EPOCH>37720</REV_AT_EPOCH><BSTAR>.80197E-3</BSTAR><MEAN_MOTION_DOT>.2231E-4</MEAN_MOTION_DOT><MEAN_MOTION_DDOT>0</MEAN_MOTION_DDOT></tleParameters></data></segment></body></omm>
<omm id="CCSDS_OMM_VERS" version="2.0">
<header><CREATION_DATE/><ORIGINATOR/></header><body><segment><metadata><OBJECT_NAME>ORBCOMM FM16</OBJECT_NAME><OBJECT_ID>1998-046E</OBJECT_ID><CENTER_NAME>EARTH</CENTER_NAME><REF_FRAME>TEME</REF_FRAME><TIME_SYSTEM>UTC</TIME_SYSTEM><MEAN_ELEMENT_THEORY>SGP4</MEAN_ELEMENT_THEORY></metadata><data><meanElements><EPOCH>2024-12-10T13:14:40.916544</EPOCH><MEAN_MOTION>14.37825050</MEAN_MOTION><ECCENTRICITY>.0003069</ECCENTRICITY><INCLINATION>44.9946</INCLINATION><RA_OF_ASC_NODE>347.9642</RA_OF_ASC_NODE><ARG_OF_PERICENTER>32.2210</ARG_OF_PERICENTER><MEAN_ANOMALY>327.8825</MEAN_ANOMALY></meanElements><tleParameters><EPHEMERIS_TYPE>0</EPHEMERIS_TYPE><CLASSIFICATION_TYPE>U</CLASSIFICATION_TYPE><NORAD_CAT_ID>25417</NORAD_CAT_ID><ELEMENT_SET_NO>999</ELEMENT_SET_NO><REV_AT_EPOCH>37709</REV_AT_EPOCH><BSTAR>.95219E-3</BSTAR><MEAN_MOTION_DOT>.2755E-4</MEAN_MOTION_DOT><MEAN_MOTION_DDOT>0</MEAN_MOTION_DDOT></tleParameters></data></segment></body></omm>
<omm id="CCSDS_OMM_VERS" version="2.0">
<header><CREATION_DATE/><ORIGINATOR/></header><body><segment><metadata><OBJECT_NAME>ORBCOMM FM15</OBJECT_NAME><OBJECT_ID>1998-046F</OBJECT_ID><CENTER_NAME>EARTH</CENTER_NAME><REF_FRAME>TEME</REF_FRAME><TIME_SYSTEM>UTC</TIME_SYSTEM><MEAN_ELEMENT_THEORY>SGP4</MEAN_ELEMENT_THEORY></metadata><data><meanElements><EPOCH>2024-12-10T18:17:04.586496</EPOCH><MEAN_MOTION>14.37507450</MEAN_MOTION><ECCENTRICITY>.0002548</ECCENTRICITY><INCLINATION>44.9979</INCLINATION><RA_OF_ASC_NODE>351.5783</RA_OF_ASC_NODE><ARG_OF_PERICENTER>31.0931</ARG_OF_PERICENTER><MEAN_ANOMALY>329.0068</MEAN_ANOMALY></meanElements><tleParameters><EPHEMERIS_TYPE>0</EPHEMERIS_TYPE><CLASSIFICATION_TYPE>U</CLASSIFICATION_TYPE><NORAD_CAT_ID>25418</NORAD_CAT_ID><ELEMENT_SET_NO>999</ELEMENT_SET_NO><REV_AT_EPOCH>37729</REV_AT_EPOCH><BSTAR>.10286E-2</BSTAR><MEAN_MOTION_DOT>.2968E-4</MEAN_MOTION_DOT><MEAN_MOTION_DDOT>0</MEAN_MOTION_DDOT></tleParameters></data></segment></body></omm>
<omm id="CCSDS_OMM_VERS" version="2.0">
<header><CREATION_DATE/><ORIGINATOR/></header><body><segment><metadata><OBJECT_NAME>ORBCOMM FM14</OBJECT_NAME><OBJECT_ID>1998-046G</OBJECT_ID><CENTER_NAME>EARTH</CENTER_NAME><REF_FRAME>TEME</REF_FRAME><TIME_SYSTEM>UTC</TIME_SYSTEM><MEAN_ELEMENT_THEORY>SGP4</MEAN_ELEMENT_THEORY></metadata><data><meanElements><EPOCH>2024-12-10T09:44:14.104320</EPOCH><MEAN_MOTION>14.37792885</MEAN_MOTION><ECCENTRICITY>.0002343</ECCENTRICITY><INCLINATION>44.9964</INCLINATION><RA_OF_ASC_NODE>351.9956</RA_OF_ASC_NODE><ARG_OF_PERICENTER>0.0065</ARG_OF_PERICENTER><MEAN_ANOMALY>0.0783</MEAN_ANOMALY></meanElements><tleParameters><EPHEMERIS_TYPE>0</EPHEMERIS_TYPE><CLASSIFICATION_TYPE>U</CLASSIFICATION_TYPE><NORAD_CAT_ID>25419</NORAD_CAT_ID><ELEMENT_SET_NO>999</ELEMENT_SET_NO><REV_AT_EPOCH>37703</REV_AT_EPOCH><BSTAR>.11927E-2</BSTAR><MEAN_MOTION_DOT>.3485E-4</MEAN_MOTION_DOT><MEAN_MOTION_DDOT>0</MEAN_MOTION_DDOT></tleParameters></data></segment></body></omm>
<omm id="CCSDS_OMM_VERS" version="2.0">
<header><CREATION_DATE/><ORIGINATOR/></header><body><segment><metadata><OBJECT_NAME>ORBCOMM FM13</OBJECT_NAME><OBJECT_ID>1998-046H</OBJECT_ID><CENTER_NAME>EARTH</CENTER_NAME><REF_FRAME>TEME</REF_FRAME><TIME_SYSTEM>UTC</TIME_SYSTEM><MEAN_ELEMENT_THEORY>SGP4</MEAN_ELEMENT_THEORY></metadata><data><meanElements><EPOCH>2024-12-10T12:11:30.812928</EPOCH><MEAN_MOTION>14.36769341</MEAN_MOTION><ECCENTRICITY>.000402</ECCENTRICITY><INCLINATION>44.9984</INCLINATION><RA_OF_ASC_NODE>357.7970</RA_OF_ASC_NODE><ARG_OF_PERICENTER>19.9275</ARG_OF_PERICENTER><MEAN_ANOMALY>340.1729</MEAN_ANOMALY></meanElements><tleParameters><EPHEMERIS_TYPE>0</EPHEMERIS_TYPE><CLASSIFICATION_TYPE>U</CLASSIFICATION_TYPE><NORAD_CAT_ID>25420</NORAD_CAT_ID><ELEMENT_SET_NO>999</ELEMENT_SET_NO><REV_AT_EPOCH>37609</REV_AT_EPOCH><BSTAR>.96381E-3</BSTAR><MEAN_MOTION_DOT>.2729E-4</MEAN_MOTION_DOT><MEAN_MOTION_DDOT>0</MEAN_MOTION_DDOT></tleParameters></data></segment></body></omm>
<omm id="CCSDS_OMM_VERS" version="2.0">
<header><CREATION_DATE/><ORIGINATOR/></header><body><segment><metadata><OBJECT_NAME>ORBCOMM FM21</OBJECT_NAME><OBJECT_ID>1998-053A</OBJECT_ID><CENTER_NAME>EARTH</CENTER_NAME><REF_FRAME>TEME</REF_FRAME><TIME_SYSTEM>UTC</TIME_SYSTEM><MEAN_ELEMENT_THEORY>SGP4</MEAN_ELEMENT_THEORY></metadata><data><meanElements><EPOCH>2024-12-10T13:09:10.429632</EPOCH><MEAN_MOTION>14.36565836</MEAN_MOTION><ECCENTRICITY>.0001652</ECCENTRICITY><INCLINATION>45.0082</INCLINATION><RA_OF_ASC_NODE>82.3338</RA_OF_ASC_NODE><ARG_OF_PERICENTER>262.5932</ARG_OF_PERICENTER><MEAN_ANOMALY>97.4728</MEAN_ANOMALY></meanElements><tleParameters><EPHEMERIS_TYPE>0</EPHEMERIS_TYPE><CLASSIFICATION_TYPE>U</CLASSIFICATION_TYPE><NORAD_CAT_ID>25475</NORAD_CAT_ID><ELEMENT_SET_NO>999</ELEMENT_SET_NO><REV_AT_EPOCH>37011</REV_AT_EPOCH><BSTAR>.92886E-3</BSTAR><MEAN_MOTION_DOT>.2614E-4</MEAN_MOTION_DOT><MEAN_MOTION_DDOT>0</MEAN_MOTION_DDOT></tleParameters></data></segment></body></omm>
<omm id="CCSDS_OMM_VERS" version="2.0">
<header><CREATION_DATE/><ORIGINATOR/></header><body><segment><metadata><OBJECT_NAME>ORBCOMM FM22</OBJECT_NAME><OBJECT_ID>1998-053B</OBJECT_ID><CENTER_NAME>EARTH</CENTER_NAME><REF_FRAME>TEME</REF_FRAME><TIME_SYSTEM>UTC</TIME_SYSTEM><MEAN_ELEMENT_THEORY>SGP4</MEAN_ELEMENT_THEORY></metadata><data><meanElements><EPOCH>2024-12-10T13:39:15.704064</EPOCH><MEAN_MOTION>14.37376146</MEAN_MOTION><ECCENTRICITY>.000268</ECCENTRICITY><INCLINATION>45.0074</INCLINATION><RA_OF_ASC_NODE>78.4555</RA_OF_ASC_NODE><ARG_OF_PERICENTER>305.9272</ARG_OF_PERICENTER><MEAN_ANOMALY>54.1327</MEAN_ANOMALY></meanElements><tleParameters><EPHEMERIS_TYPE>0</EPHEMERIS_TYPE><CLASSIFICATION_TYPE>U</CLASSIFICATION_TYPE><NORAD_CAT_ID>25476</NORAD_CAT_ID><ELEMENT_SET_NO>999</ELEMENT_SET_NO><REV_AT_EPOCH>37012</REV_AT_EPOCH><BSTAR>.10903E-2</BSTAR><MEAN_MOTION_DOT>.3146E-4</MEAN_MOTION_DOT><MEAN_MOTION_DDOT>0</MEAN_MOTION_DDOT></tleParameters></data></segment></body></omm>
<omm id="CCSDS_OMM_VERS" version="2.0">
<header><CREATION_DATE/><ORIGINATOR/></header><body><segment><metadata><OBJECT_NAME>ORBCOMM FM23</OBJECT_NAME><OBJECT_ID>1998-053C</OBJECT_ID><CENTER_NAME>EARTH</CENTER_NAME><REF_FRAME>TEME</REF_FRAME><TIME_SYSTEM>UTC</TIME_SYSTEM><MEAN_ELEMENT_THEORY>SGP4</MEAN_ELEMENT_THEORY></metadata><data><meanElements><EPOCH>2024-12-10T13:37:33.872160</EPOCH><MEAN_MOTION>14.36666520</MEAN_MOTION><ECCENTRICITY>.0002036</ECCENTRICITY><INCLINATION>45.0081</INCLINATION><RA_OF_ASC_NODE>84.5738</RA_OF_ASC_NODE><ARG_OF_PERICENTER>290.8924</ARG_OF_PERICENTER><MEAN_ANOMALY>69.1706</MEAN_ANOMALY></meanElements><tleParameters><EPHEMERIS_TYPE>0</EPHEMERIS_TYPE><CLASSIFICATION_TYPE>U</CLASSIFICATION_TYPE><NORAD_CAT_ID>25477</NORAD_CAT_ID><ELEMENT_SET_NO>999</ELEMENT_SET_NO><REV_AT_EPOCH>37026</REV_AT_EPOCH><BSTAR>.97386E-3</BSTAR><MEAN_MOTION_DOT>.2753E-4</MEAN_MOTION_DOT><MEAN_MOTION_DDOT>0</MEAN_MOTION_DDOT></tleParameters></data></segment></body></omm>

</ndm>
